#aV2009  9 19  0  0   .00000000      96 DD+AD WGS84 FIT  NGA
## 1549 518400.00000000   900.00000000 55093  .0000000000000
+   32     1  2  3  4  5  6  7  8  9 10 11 12 13 14 15 16 17
+         18 19 20 21 22 23 24 25 26 27 28 29 30 31 32  0  0
+          0  0  0  0  0  0  0  0  0  0  0  0  0  0  0  0  0
+          0  0  0  0  0  0  0  0  0  0  0  0  0  0  0  0  0
+          0  0  0  0  0  0  0  0  0  0  0  0  0  0  0  0  0
++         0  0  0  0  0  0  0  0  0  0  0  0  0  0  0  0  0
++         0  0  0  0  0  0  0  0  0  0  0  0  0  0  0  0  0
++         0  0  0  0  0  0  0  0  0  0  0  0  0  0  0  0  0
++         0  0  0  0  0  0  0  0  0  0  0  0  0  0  0  0  0
++         0  0  0  0  0  0  0  0  0  0  0  0  0  0  0  0  0
%c cc cc ccc ccc cccc cccc cccc cccc ccccc ccccc ccccc ccccc
%c cc cc ccc ccc cccc cccc cccc cccc ccccc ccccc ccccc ccccc
%f  0.0000000  0.000000000  0.00000000000  0.000000000000000
%f  0.0000000  0.000000000  0.00000000000  0.000000000000000
%i    0    0    0    0      0      0      0      0         0
%i    0    0    0    0      0      0      0      0         0
/*      NGA, ST. LOUIS,MO.                                  
/*   EPHEMERIS COMPUTED FROM  3 DAYS OF DATA                
/* CCCCCCCCCCCCCCCCCCCCCCCCCCCCCCCCCCCCCCCCCCCCCCCCCCCCCCCCC
/* CCCCCCCCCCCCCCCCCCCCCCCCCCCCCCCCCCCCCCCCCCCCCCCCCCCCCCCCC
*  2009  9 19 13 45   .00000000                                                 
P  1  16520.364722  14812.013950  14573.528163    -58.088707                    
V  1   4727.644649  18145.384268 -23534.874183      -.006688                    
P  2  -8411.613587  14031.454670  20779.463788    173.687756                    
V  2 -26244.467330  -5054.858757  -7607.111632       .030827                    
P  3   7588.564486 -23824.493489  -8746.194099    449.271676                    
V  3   9031.891211  -7041.687180  28448.744464       .051056                    
P  4 -19429.137946   8548.119535  16045.644147   -272.724811                    
V  4 -19895.899945  -5558.958007 -20578.207554      -.173650                    
P  5    183.987347  23780.413004  11773.646038    -86.843416                    
V  5  -7548.685714 -13207.564571  26742.012669       .111550                    
P  6  12285.718108 -22863.349826  -5230.433455    241.525967                    
V  6   7059.691123  -3349.728518  30259.339980       .060762                    
P  7 -25376.287444  -7051.364403   3988.364847     11.182452                    
V  7   5390.514049  -1526.031209  31303.386896      -.007183                    
P  8 -25340.784709     36.906289  -8841.427694   -221.879533                    
V  8 -10398.215859  -3779.844560  29419.281831      -.015561                    
P  9  12718.274892  14560.904188 -18898.993369     78.355304                    
V  9 -22509.381804  -2000.528142 -17248.737396       .020956                    
P 10   -759.650411  23472.520341  11908.273926    -23.919893                    
V 10  -7692.791094 -13751.362319  26584.260161      -.008827                    
P 11 -16178.809064 -12946.232556 -17021.334347    -20.366622                    
V 11  21168.174664  -3760.629504 -17122.463316      -.017665                    
P 12  11643.524602  23602.760387   4093.553112   -216.627733                    
V 12   -543.075164   5638.432106 -31265.073302       .056519                    
P 13 -16530.603543  -1888.919356  20580.861605    304.801584                    
V 13  17483.675242 -19698.314831  12143.867969       .004718                    
P 14  20667.750310 -12928.466692 -10249.532050    -48.818419                    
V 14  -7440.065485  11080.312760 -28740.045148       .051864                    
P 15  -3043.438704  21307.007992 -15488.794167   -318.645464                    
V 15 -14014.109072  14090.177193  22167.823670      -.010027                    
P 16   5169.786055 -19965.536811  16640.931149     11.142085                    
V 16   8619.961007  19367.477863  20853.703508      -.039078                    
P 17 -20615.780860  12926.082432 -10336.157946     86.202215                    
V 17   6634.989270 -11829.424288 -28025.212539       .031061                    
P 18  17084.393765   8767.737969 -18253.952834     13.993858                    
V 18   6085.690165  22886.297704  16087.569864       .028267                    
P 19   2476.214864 -19981.349794 -17133.329011     10.101976                    
V 19  16617.648761 -14493.369188  19518.240218      -.017019                    
P 20 -13779.886596 -21805.302488   6315.657536     71.919090                    
V 20     -2.537928  -8831.117004 -29868.319526      -.009158                    
P 21  26379.239640   5288.594792    560.952812    -10.105715                    
V 21   -929.781580   3002.405834  30731.474169      -.022711                    
P 22  14779.471988  -5080.695772 -21307.754799    190.656205                    
V 22   8828.777277  26086.206443   -175.320434      -.009682                    
P 23  -7118.715621 -14163.151080  21226.659737    388.416031                    
V 23  17938.265865 -20277.278440  -7796.534588      -.003706                    
P 24  19191.333273  13354.157017  12481.872895    221.851846                    
V 24 -15991.130252   -728.549270  25869.143618       .030906                    
P 25 -21651.554383  -9798.276898  11997.306216    600.382990                    
V 25  14877.276535  -1063.560579  26922.616274       .146238                    
P 26  20358.694238  -5689.766730 -16915.163717     62.356092                    
V 26 -13210.316070  15306.500375 -21272.816187      -.010534                    
P 27   8268.572466  14509.516385 -19978.756421     84.057353                    
V 27 -26814.553995  -1923.885648 -12062.178769       .032431                    
P 28 -15028.429889   1651.717608 -21422.923651    -26.141025                    
V 28  -8827.031544 -26788.880447   3740.201743       .000981                    
P 29  15406.458901   4858.551533  21170.337342     58.857472                    
V 29 -17005.406053  20557.060828   7735.329844       .033334                    
P 30  16606.526478  16172.007350  12640.148977    178.201085                    
V 30   4148.248939  16340.193709 -25512.588149       .031163                    
P 31  17337.158170  -9507.906534  18009.338243    -64.170699                    
V 31  21855.484173   4910.807585 -18522.991960       .004752                    
P 32  -7554.828228 -25623.372086    573.879892    193.666975                    
V 32   2376.748711   -932.774014 -31588.163772      -.071417                    
EOF
